# metars

Get the METAR for an airport or list of airports.

## Usage

Get the weather at KRNT.

```
$ cargo run krnt
VFR KRNT 270753Z AUTO 18003KT 10SM OVC043 06/04 A3010 RMK AO2 RAE52 SLP197 P0001 T00610039 401000056
```